LEO EXPRESS 1           
1 58301U 23174AX  26068.76789509  .00017303  00000+0  49741-3 0  9998
2 58301  97.5222 152.4092 0078735 115.9210 245.0174 15.32756831129655
STARLINK-35663          
1 66491U 25263G   26068.14023977  .00025893  00000+0  94750-3 0  9993
2 66491  43.0016 353.8950 0000671 289.3507  70.7272 15.27568398 18810
